IRIDIUM 33 DEB          
1 33960U 97051BV  26087.91804298  .00030894  00000+0  30866-2 0  9995
2 33960  86.2511 239.1863 0001799  85.2926  38.4255 14.91345645904468
IRIDIUM 33 DEB          
1 33966U 97051CB  26088.19528713  .00002544  00000+0  65034-3 0  9994
2 33966  86.3976   0.3324 0006240 191.0166 322.4910 14.50130645899844
IRIDIUM 33 DEB          
1 34071U 97051CE  26088.15841166  .00002341  00000+0  59824-3 0  9993
2 34071  86.3471 331.5757 0009367 106.1320 254.0917 14.50088928898766
IRIDIUM 33 DEB          
1 34077U 97051CL  26088.20909443  .00014937  00000+0  26579-2 0  9992
2 34077  86.3895   4.5295 0011370  33.6565 119.3415 14.66981994898924
IRIDIUM 33 DEB          
1 34079U 97051CN  26087.91616919  .00014599  00000+0  16016-2 0  9993
2 34079  86.3762 320.2239 0006370 349.7909  26.0762 14.87606525905545
IRIDIUM 33 DEB          
1 34088U 97051CX  26088.18492207  .00045832  00000+0  37197-2 0  9992
2 34088  86.3848 341.5238 0004196 121.4874  38.8081 14.99431624903323
IRIDIUM 33 DEB          
1 34091U 97051DA  26088.19647067  .00053982  00000+0  53277-2 0  9995
2 34091  86.3467  17.7197 0025545 286.1333  73.7083 14.91477969894480
IRIDIUM 33 DEB          
1 34097U 97051DG  26088.04896126  .00003337  00000+0  11062-2 0  9992
2 34097  86.1987 314.4648 0082645  14.9604 345.4008 14.35677234886449
IRIDIUM 33 DEB          
1 34145U 97051DY  26087.51178186  .00003299  00000+0  95854-3 0  9995
2 34145  86.2065 285.3809 0054133 104.6665 256.0546 14.43201596891635
IRIDIUM 33 DEB          
1 34146U 97051DZ  26088.09124422  .00002303  00000+0  58988-3 0  9996
2 34146  86.2806 302.8049 0024956 229.1523 287.5359 14.49818540896473
IRIDIUM 33 DEB          
1 34159U 97051EN  26088.01172394  .00001241  00000+0  39617-3 0  9991
2 34159  86.3563   2.9275 0026225 301.9060  57.9588 14.38806605894875
IRIDIUM 33 DEB          
1 34350U 97051ES  26088.14560036  .00001122  00000+0  31024-3 0  9994
2 34350  86.3269 316.6498 0022049 141.3013 349.0830 14.45735548898309
IRIDIUM 33 DEB          
1 34366U 97051FJ  26087.82267232  .00004558  00000+0  10467-2 0  9990
2 34366  86.3735   3.1344 0021258 137.6667 288.0158 14.55186915897242
IRIDIUM 33 DEB          
1 34375U 97051FT  26088.09109062  .00000863  00000+0  38944-3 0  9992
2 34375  86.4315 139.8591 0103467 148.2452 240.2966 14.18215865882192
IRIDIUM 33 DEB          
1 34376U 97051FU  26088.05184571  .00007886  00000+0  14665-2 0  9992
2 34376  86.2964 318.6665 0024976 164.8023 195.3946 14.64827895895628
IRIDIUM 33 DEB          
1 34486U 97051GB  26088.16889379  .00039771  00000+0  29112-2 0  9995
2 34486  86.3917 322.6137 0011229  86.6602  42.6728 15.03353276905815
