[{"OBJECT_NAME":"IRIDIUM 33 DEB","OBJECT_ID":"1997-051BV","EPOCH":"2026-03-28T22:01:58.913472","MEAN_MOTION":14.91345645,"ECCENTRICITY":0.0001799,"INCLINATION":86.2511,"RA_OF_ASC_NODE":239.1863,"ARG_OF_PERICENTER":85.2926,"MEAN_ANOMALY":38.4255,"EPHEMERIS_TYPE":0,"CLASSIFICATION_TYPE":"U","NORAD_CAT_ID":33960,"ELEMENT_SET_NO":999,"REV_AT_EPOCH":90446,"BSTAR":0.0030866,"MEAN_MOTION_DOT":0.00030894,"MEAN_MOTION_DDOT":0},{"OBJECT_NAME":"IRIDIUM 33 DEB","OBJECT_ID":"1997-051CB","EPOCH":"2026-03-29T04:41:12.808032","MEAN_MOTION":14.50130645,"ECCENTRICITY":0.000624,"INCLINATION":86.3976,"RA_OF_ASC_NODE":0.3324,"ARG_OF_PERICENTER":191.0166,"MEAN_ANOMALY":322.491,"EPHEMERIS_TYPE":0,"CLASSIFICATION_TYPE":"U","NORAD_CAT_ID":33966,"ELEMENT_SET_NO":999,"REV_AT_EPOCH":89984,"BSTAR":0.00065034,"MEAN_MOTION_DOT":2.544e-5,"MEAN_MOTION_DDOT":0},{"OBJECT_NAME":"IRIDIUM 33 DEB","OBJECT_ID":"1997-051CE","EPOCH":"2026-03-29T03:48:06.767424","MEAN_MOTION":14.50088928,"ECCENTRICITY":0.0009367,"INCLINATION":86.3471,"RA_OF_ASC_NODE":331.5757,"ARG_OF_PERICENTER":106.132,"MEAN_ANOMALY":254.0917,"EPHEMERIS_TYPE":0,"CLASSIFICATION_TYPE":"U","NORAD_CAT_ID":34071,"ELEMENT_SET_NO":999,"REV_AT_EPOCH":89876,"BSTAR":0.00059824,"MEAN_MOTION_DOT":2.341e-5,"MEAN_MOTION_DDOT":0},{"OBJECT_NAME":"IRIDIUM 33 DEB","OBJECT_ID":"1997-051CL","EPOCH":"2026-03-29T05:01:05.758752","MEAN_MOTION":14.66981994,"ECCENTRICITY":0.001137,"INCLINATION":86.3895,"RA_OF_ASC_NODE":4.5295,"ARG_OF_PERICENTER":33.6565,"MEAN_ANOMALY":119.3415,"EPHEMERIS_TYPE":0,"CLASSIFICATION_TYPE":"U","NORAD_CAT_ID":34077,"ELEMENT_SET_NO":999,"REV_AT_EPOCH":89892,"BSTAR":0.0026579,"MEAN_MOTION_DOT":0.00014937,"MEAN_MOTION_DDOT":0},{"OBJECT_NAME":"IRIDIUM 33 DEB","OBJECT_ID":"1997-051CN","EPOCH":"2026-03-28T21:59:17.018016","MEAN_MOTION":14.87606525,"ECCENTRICITY":0.000637,"INCLINATION":86.3762,"RA_OF_ASC_NODE":320.2239,"ARG_OF_PERICENTER":349.7909,"MEAN_ANOMALY":26.0762,"EPHEMERIS_TYPE":0,"CLASSIFICATION_TYPE":"U","NORAD_CAT_ID":34079,"ELEMENT_SET_NO":999,"REV_AT_EPOCH":90554,"BSTAR":0.0016016,"MEAN_MOTION_DOT":0.00014599,"MEAN_MOTION_DDOT":0},{"OBJECT_NAME":"IRIDIUM 33 DEB","OBJECT_ID":"1997-051CX","EPOCH":"2026-03-29T04:26:17.266848","MEAN_MOTION":14.99431624,"ECCENTRICITY":0.0004196,"INCLINATION":86.3848,"RA_OF_ASC_NODE":341.5238,"ARG_OF_PERICENTER":121.4874,"MEAN_ANOMALY":38.8081,"EPHEMERIS_TYPE":0,"CLASSIFICATION_TYPE":"U","NORAD_CAT_ID":34088,"ELEMENT_SET_NO":999,"REV_AT_EPOCH":90332,"BSTAR":0.0037197,"MEAN_MOTION_DOT":0.00045832,"MEAN_MOTION_DDOT":0},{"OBJECT_NAME":"IRIDIUM 33 DEB","OBJECT_ID":"1997-051DA","EPOCH":"2026-03-29T04:42:55.065888","MEAN_MOTION":14.91477969,"ECCENTRICITY":0.0025545,"INCLINATION":86.3467,"RA_OF_ASC_NODE":17.7197,"ARG_OF_PERICENTER":286.1333,"MEAN_ANOMALY":73.7083,"EPHEMERIS_TYPE":0,"CLASSIFICATION_TYPE":"U","NORAD_CAT_ID":34091,"ELEMENT_SET_NO":999,"REV_AT_EPOCH":89448,"BSTAR":0.0053277,"MEAN_MOTION_DOT":0.00053982,"MEAN_MOTION_DDOT":0},{"OBJECT_NAME":"IRIDIUM 33 DEB","OBJECT_ID":"1997-051DG","EPOCH":"2026-03-29T01:10:30.252864","MEAN_MOTION":14.35677234,"ECCENTRICITY":0.0082645,"INCLINATION":86.1987,"RA_OF_ASC_NODE":314.4648,"ARG_OF_PERICENTER":14.9604,"MEAN_ANOMALY":345.4008,"EPHEMERIS_TYPE":0,"CLASSIFICATION_TYPE":"U","NORAD_CAT_ID":34097,"ELEMENT_SET_NO":999,"REV_AT_EPOCH":88644,"BSTAR":0.0011062,"MEAN_MOTION_DOT":3.337e-5,"MEAN_MOTION_DDOT":0},{"OBJECT_NAME":"IRIDIUM 33 DEB","OBJECT_ID":"1997-051DY","EPOCH":"2026-03-28T12:16:57.952704","MEAN_MOTION":14.43201596,"ECCENTRICITY":0.0054133,"INCLINATION":86.2065,"RA_OF_ASC_NODE":285.3809,"ARG_OF_PERICENTER":104.6665,"MEAN_ANOMALY":256.0546,"EPHEMERIS_TYPE":0,"CLASSIFICATION_TYPE":"U","NORAD_CAT_ID":34145,"ELEMENT_SET_NO":999,"REV_AT_EPOCH":89163,"BSTAR":0.00095854,"MEAN_MOTION_DOT":3.299e-5,"MEAN_MOTION_DDOT":0},{"OBJECT_NAME":"IRIDIUM 33 DEB","OBJECT_ID":"1997-051DZ","EPOCH":"2026-03-29T02:11:23.500608","MEAN_MOTION":14.4981854,"ECCENTRICITY":0.0024956,"INCLINATION":86.2806,"RA_OF_ASC_NODE":302.8049,"ARG_OF_PERICENTER":229.1523,"MEAN_ANOMALY":287.5359,"EPHEMERIS_TYPE":0,"CLASSIFICATION_TYPE":"U","NORAD_CAT_ID":34146,"ELEMENT_SET_NO":999,"REV_AT_EPOCH":89647,"BSTAR":0.00058988,"MEAN_MOTION_DOT":2.303e-5,"MEAN_MOTION_DDOT":0},{"OBJECT_NAME":"IRIDIUM 33 DEB","OBJECT_ID":"1997-051EN","EPOCH":"2026-03-29T00:16:52.948416","MEAN_MOTION":14.38806605,"ECCENTRICITY":0.0026225,"INCLINATION":86.3563,"RA_OF_ASC_NODE":2.9275,"ARG_OF_PERICENTER":301.906,"MEAN_ANOMALY":57.9588,"EPHEMERIS_TYPE":0,"CLASSIFICATION_TYPE":"U","NORAD_CAT_ID":34159,"ELEMENT_SET_NO":999,"REV_AT_EPOCH":89487,"BSTAR":0.00039617,"MEAN_MOTION_DOT":1.241e-5,"MEAN_MOTION_DDOT":0},{"OBJECT_NAME":"IRIDIUM 33 DEB","OBJECT_ID":"1997-051ES","EPOCH":"2026-03-29T03:29:39.871104","MEAN_MOTION":14.45735548,"ECCENTRICITY":0.0022049,"INCLINATION":86.3269,"RA_OF_ASC_NODE":316.6498,"ARG_OF_PERICENTER":141.3013,"MEAN_ANOMALY":349.083,"EPHEMERIS_TYPE":0,"CLASSIFICATION_TYPE":"U","NORAD_CAT_ID":34350,"ELEMENT_SET_NO":999,"REV_AT_EPOCH":89830,"BSTAR":0.00031024,"MEAN_MOTION_DOT":1.122e-5,"MEAN_MOTION_DDOT":0},{"OBJECT_NAME":"IRIDIUM 33 DEB","OBJECT_ID":"1997-051FJ","EPOCH":"2026-03-28T19:44:38.888448","MEAN_MOTION":14.55186915,"ECCENTRICITY":0.00212582,"INCLINATION":86.3735,"RA_OF_ASC_NODE":3.1344,"ARG_OF_PERICENTER":137.6667,"MEAN_ANOMALY":288.0158,"EPHEMERIS_TYPE":0,"CLASSIFICATION_TYPE":"U","NORAD_CAT_ID":34366,"ELEMENT_SET_NO":999,"REV_AT_EPOCH":89724,"BSTAR":0.0010466823,"MEAN_MOTION_DOT":4.558e-5,"MEAN_MOTION_DDOT":0},{"OBJECT_NAME":"IRIDIUM 33 DEB","OBJECT_ID":"1997-051FT","EPOCH":"2026-03-29T02:11:10.229568","MEAN_MOTION":14.18215865,"ECCENTRICITY":0.0103467,"INCLINATION":86.4315,"RA_OF_ASC_NODE":139.8591,"ARG_OF_PERICENTER":148.2452,"MEAN_ANOMALY":240.2966,"EPHEMERIS_TYPE":0,"CLASSIFICATION_TYPE":"U","NORAD_CAT_ID":34375,"ELEMENT_SET_NO":999,"REV_AT_EPOCH":88219,"BSTAR":0.00038944,"MEAN_MOTION_DOT":8.63e-6,"MEAN_MOTION_DDOT":0},{"OBJECT_NAME":"IRIDIUM 33 DEB","OBJECT_ID":"1997-051FU","EPOCH":"2026-03-29T01:14:39.469344","MEAN_MOTION":14.64827895,"ECCENTRICITY":0.0024976,"INCLINATION":86.2964,"RA_OF_ASC_NODE":318.6665,"ARG_OF_PERICENTER":164.8023,"MEAN_ANOMALY":195.3946,"EPHEMERIS_TYPE":0,"CLASSIFICATION_TYPE":"U","NORAD_CAT_ID":34376,"ELEMENT_SET_NO":999,"REV_AT_EPOCH":89562,"BSTAR":0.0014665,"MEAN_MOTION_DOT":7.886e-5,"MEAN_MOTION_DDOT":0},{"OBJECT_NAME":"IRIDIUM 33 DEB","OBJECT_ID":"1997-051GB","EPOCH":"2026-03-29T04:03:12.423456","MEAN_MOTION":15.03353276,"ECCENTRICITY":0.0011229,"INCLINATION":86.3917,"RA_OF_ASC_NODE":322.6137,"ARG_OF_PERICENTER":86.6602,"MEAN_ANOMALY":42.6728,"EPHEMERIS_TYPE":0,"CLASSIFICATION_TYPE":"U","NORAD_CAT_ID":34486,"ELEMENT_SET_NO":999,"REV_AT_EPOCH":90581,"BSTAR":0.0029112,"MEAN_MOTION_DOT":0.00039771,"MEAN_MOTION_DDOT":0}]
